<?xml version="1.0" encoding="UTF-8"?>
<ndm xmlns:xsi="http://www.w3.org/2001/XMLSchema-instance" xsi:noNamespaceSchemaLocation="https://sanaregistry.org/r/ndmxml_unqualified/ndmxml-2.0.0-master-2.0.xsd">
<omm id="CCSDS_OMM_VERS" version="2.0">
<header><CREATION_DATE/><ORIGINATOR/></header><body><segment><metadata><OBJECT_NAME>KUIPER-00163</OBJECT_NAME><OBJECT_ID>2025-217R</OBJECT_ID><CENTER_NAME>EARTH</CENTER_NAME><REF_FRAME>TEME</REF_FRAME><TIME_SYSTEM>UTC</TIME_SYSTEM><MEAN_ELEMENT_THEORY>SGP4</MEAN_ELEMENT_THEORY></metadata><data><meanElements><EPOCH>2025-10-19T06:30:10.727136</EPOCH><MEAN_MOTION>15.35223862</MEAN_MOTION><ECCENTRICITY>.00075152</ECCENTRICITY><INCLINATION>51.8626</INCLINATION><RA_OF_ASC_NODE>327.9264</RA_OF_ASC_NODE><ARG_OF_PERICENTER>188.8339</ARG_OF_PERICENTER><MEAN_ANOMALY>171.2515</MEAN_ANOMALY></meanElements><tleParameters><EPHEMERIS_TYPE>0</EPHEMERIS_TYPE><CLASSIFICATION_TYPE>U</CLASSIFICATION_TYPE><NORAD_CAT_ID>65777</NORAD_CAT_ID><ELEMENT_SET_NO>999</ELEMENT_SET_NO><REV_AT_EPOCH>366</REV_AT_EPOCH><BSTAR>.88886886E-3</BSTAR><MEAN_MOTION_DOT>.30628E-3</MEAN_MOTION_DOT><MEAN_MOTION_DDOT>0</MEAN_MOTION_DDOT></tleParameters></data></segment></body></omm>
<omm id="CCSDS_OMM_VERS" version="2.0">
<header><CREATION_DATE/><ORIGINATOR/></header><body><segment><metadata><OBJECT_NAME>KUIPER-00165</OBJECT_NAME><OBJECT_ID>2025-217S</OBJECT_ID><CENTER_NAME>EARTH</CENTER_NAME><REF_FRAME>TEME</REF_FRAME><TIME_SYSTEM>UTC</TIME_SYSTEM><MEAN_ELEMENT_THEORY>SGP4</MEAN_ELEMENT_THEORY></metadata><data><meanElements><EPOCH>2025-10-19T07:36:15.073632</EPOCH><MEAN_MOTION>15.36494401</MEAN_MOTION><ECCENTRICITY>.00041424</ECCENTRICITY><INCLINATION>51.8712</INCLINATION><RA_OF_ASC_NODE>327.5000</RA_OF_ASC_NODE><ARG_OF_PERICENTER>145.6093</ARG_OF_PERICENTER><MEAN_ANOMALY>214.5163</MEAN_ANOMALY></meanElements><tleParameters><EPHEMERIS_TYPE>0</EPHEMERIS_TYPE><CLASSIFICATION_TYPE>U</CLASSIFICATION_TYPE><NORAD_CAT_ID>65778</NORAD_CAT_ID><ELEMENT_SET_NO>999</ELEMENT_SET_NO><REV_AT_EPOCH>367</REV_AT_EPOCH><BSTAR>.14740916E-2</BSTAR><MEAN_MOTION_DOT>.53309E-3</MEAN_MOTION_DOT><MEAN_MOTION_DDOT>0</MEAN_MOTION_DDOT></tleParameters></data></segment></body></omm>
<omm id="CCSDS_OMM_VERS" version="2.0">
<header><CREATION_DATE/><ORIGINATOR/></header><body><segment><metadata><OBJECT_NAME>KUIPER-00166</OBJECT_NAME><OBJECT_ID>2025-217T</OBJECT_ID><CENTER_NAME>EARTH</CENTER_NAME><REF_FRAME>TEME</REF_FRAME><TIME_SYSTEM>UTC</TIME_SYSTEM><MEAN_ELEMENT_THEORY>SGP4</MEAN_ELEMENT_THEORY></metadata><data><meanElements><EPOCH>2025-10-19T07:29:27.492864</EPOCH><MEAN_MOTION>15.36811605</MEAN_MOTION><ECCENTRICITY>.0003473</ECCENTRICITY><INCLINATION>51.8727</INCLINATION><RA_OF_ASC_NODE>327.4691</RA_OF_ASC_NODE><ARG_OF_PERICENTER>121.4273</ARG_OF_PERICENTER><MEAN_ANOMALY>238.7053</MEAN_ANOMALY></meanElements><tleParameters><EPHEMERIS_TYPE>0</EPHEMERIS_TYPE><CLASSIFICATION_TYPE>U</CLASSIFICATION_TYPE><NORAD_CAT_ID>65779</NORAD_CAT_ID><ELEMENT_SET_NO>999</ELEMENT_SET_NO><REV_AT_EPOCH>367</REV_AT_EPOCH><BSTAR>.16019911E-2</BSTAR><MEAN_MOTION_DOT>.58604E-3</MEAN_MOTION_DOT><MEAN_MOTION_DDOT>0</MEAN_MOTION_DDOT></tleParameters></data></segment></body></omm>
<omm id="CCSDS_OMM_VERS" version="2.0">
<header><CREATION_DATE/><ORIGINATOR/></header><body><segment><metadata><OBJECT_NAME>KUIPER-00167</OBJECT_NAME><OBJECT_ID>2025-217U</OBJECT_ID><CENTER_NAME>EARTH</CENTER_NAME><REF_FRAME>TEME</REF_FRAME><TIME_SYSTEM>UTC</TIME_SYSTEM><MEAN_ELEMENT_THEORY>SGP4</MEAN_ELEMENT_THEORY></metadata><data><meanElements><EPOCH>2025-10-19T06:19:52.259520</EPOCH><MEAN_MOTION>15.35705311</MEAN_MOTION><ECCENTRICITY>.00056202</ECCENTRICITY><INCLINATION>51.8686</INCLINATION><RA_OF_ASC_NODE>327.8899</RA_OF_ASC_NODE><ARG_OF_PERICENTER>178.4701</ARG_OF_PERICENTER><MEAN_ANOMALY>181.6303</MEAN_ANOMALY></meanElements><tleParameters><EPHEMERIS_TYPE>0</EPHEMERIS_TYPE><CLASSIFICATION_TYPE>U</CLASSIFICATION_TYPE><NORAD_CAT_ID>65780</NORAD_CAT_ID><ELEMENT_SET_NO>999</ELEMENT_SET_NO><REV_AT_EPOCH>366</REV_AT_EPOCH><BSTAR>.17025093E-2</BSTAR><MEAN_MOTION_DOT>.60148E-3</MEAN_MOTION_DOT><MEAN_MOTION_DDOT>0</MEAN_MOTION_DDOT></tleParameters></data></segment></body></omm>
<omm id="CCSDS_OMM_VERS" version="2.0">
<header><CREATION_DATE/><ORIGINATOR/></header><body><segment><metadata><OBJECT_NAME>KUIPER-00168</OBJECT_NAME><OBJECT_ID>2025-217V</OBJECT_ID><CENTER_NAME>EARTH</CENTER_NAME><REF_FRAME>TEME</REF_FRAME><TIME_SYSTEM>UTC</TIME_SYSTEM><MEAN_ELEMENT_THEORY>SGP4</MEAN_ELEMENT_THEORY></metadata><data><meanElements><EPOCH>2025-10-19T07:14:09.059136</EPOCH><MEAN_MOTION>15.37459727</MEAN_MOTION><ECCENTRICITY>.00019581</ECCENTRICITY><INCLINATION>51.8743</INCLINATION><RA_OF_ASC_NODE>327.3993</RA_OF_ASC_NODE><ARG_OF_PERICENTER>63.0156</ARG_OF_PERICENTER><MEAN_ANOMALY>297.1031</MEAN_ANOMALY></meanElements><tleParameters><EPHEMERIS_TYPE>0</EPHEMERIS_TYPE><CLASSIFICATION_TYPE>U</CLASSIFICATION_TYPE><NORAD_CAT_ID>65781</NORAD_CAT_ID><ELEMENT_SET_NO>999</ELEMENT_SET_NO><REV_AT_EPOCH>367</REV_AT_EPOCH><BSTAR>.17119358E-2</BSTAR><MEAN_MOTION_DOT>.64025E-3</MEAN_MOTION_DOT><MEAN_MOTION_DDOT>0</MEAN_MOTION_DDOT></tleParameters></data></segment></body></omm>
<omm id="CCSDS_OMM_VERS" version="2.0">
<header><CREATION_DATE/><ORIGINATOR/></header><body><segment><metadata><OBJECT_NAME>KUIPER-00169</OBJECT_NAME><OBJECT_ID>2025-217W</OBJECT_ID><CENTER_NAME>EARTH</CENTER_NAME><REF_FRAME>TEME</REF_FRAME><TIME_SYSTEM>UTC</TIME_SYSTEM><MEAN_ELEMENT_THEORY>SGP4</MEAN_ELEMENT_THEORY></metadata><data><meanElements><EPOCH>2025-10-19T05:57:53.975232</EPOCH><MEAN_MOTION>15.36685567</MEAN_MOTION><ECCENTRICITY>.00030549</ECCENTRICITY><INCLINATION>51.8730</INCLINATION><RA_OF_ASC_NODE>327.7922</RA_OF_ASC_NODE><ARG_OF_PERICENTER>139.0196</ARG_OF_PERICENTER><MEAN_ANOMALY>221.1020</MEAN_ANOMALY></meanElements><tleParameters><EPHEMERIS_TYPE>0</EPHEMERIS_TYPE><CLASSIFICATION_TYPE>U</CLASSIFICATION_TYPE><NORAD_CAT_ID>65782</NORAD_CAT_ID><ELEMENT_SET_NO>999</ELEMENT_SET_NO><REV_AT_EPOCH>366</REV_AT_EPOCH><BSTAR>.96037208E-3</BSTAR><MEAN_MOTION_DOT>.34721E-3</MEAN_MOTION_DOT><MEAN_MOTION_DDOT>0</MEAN_MOTION_DDOT></tleParameters></data></segment></body></omm>
<omm id="CCSDS_OMM_VERS" version="2.0">
<header><CREATION_DATE/><ORIGINATOR/></header><body><segment><metadata><OBJECT_NAME>KUIPER-00170</OBJECT_NAME><OBJECT_ID>2025-217X</OBJECT_ID><CENTER_NAME>EARTH</CENTER_NAME><REF_FRAME>TEME</REF_FRAME><TIME_SYSTEM>UTC</TIME_SYSTEM><MEAN_ELEMENT_THEORY>SGP4</MEAN_ELEMENT_THEORY></metadata><data><meanElements><EPOCH>2025-10-19T06:17:41.709120</EPOCH><MEAN_MOTION>15.35799605</MEAN_MOTION><ECCENTRICITY>.00061314</ECCENTRICITY><INCLINATION>51.8676</INCLINATION><RA_OF_ASC_NODE>327.8788</RA_OF_ASC_NODE><ARG_OF_PERICENTER>172.1758</ARG_OF_PERICENTER><MEAN_ANOMALY>187.9325</MEAN_ANOMALY></meanElements><tleParameters><EPHEMERIS_TYPE>0</EPHEMERIS_TYPE><CLASSIFICATION_TYPE>U</CLASSIFICATION_TYPE><NORAD_CAT_ID>65783</NORAD_CAT_ID><ELEMENT_SET_NO>999</ELEMENT_SET_NO><REV_AT_EPOCH>366</REV_AT_EPOCH><BSTAR>.17363377E-2</BSTAR><MEAN_MOTION_DOT>.61554E-3</MEAN_MOTION_DOT><MEAN_MOTION_DDOT>0</MEAN_MOTION_DDOT></tleParameters></data></segment></body></omm>
<omm id="CCSDS_OMM_VERS" version="2.0">
<header><CREATION_DATE/><ORIGINATOR/></header><body><segment><metadata><OBJECT_NAME>KUIPER-00171</OBJECT_NAME><OBJECT_ID>2025-217Y</OBJECT_ID><CENTER_NAME>EARTH</CENTER_NAME><REF_FRAME>TEME</REF_FRAME><TIME_SYSTEM>UTC</TIME_SYSTEM><MEAN_ELEMENT_THEORY>SGP4</MEAN_ELEMENT_THEORY></metadata><data><meanElements><EPOCH>2025-10-19T06:05:57.161184</EPOCH><MEAN_MOTION>15.36368598</MEAN_MOTION><ECCENTRICITY>.00042895</ECCENTRICITY><INCLINATION>51.8685</INCLINATION><RA_OF_ASC_NODE>327.8276</RA_OF_ASC_NODE><ARG_OF_PERICENTER>161.2528</ARG_OF_PERICENTER><MEAN_ANOMALY>198.8617</MEAN_ANOMALY></meanElements><tleParameters><EPHEMERIS_TYPE>0</EPHEMERIS_TYPE><CLASSIFICATION_TYPE>U</CLASSIFICATION_TYPE><NORAD_CAT_ID>65784</NORAD_CAT_ID><ELEMENT_SET_NO>999</ELEMENT_SET_NO><REV_AT_EPOCH>366</REV_AT_EPOCH><BSTAR>.12830215E-2</BSTAR><MEAN_MOTION_DOT>.46117E-3</MEAN_MOTION_DOT><MEAN_MOTION_DDOT>0</MEAN_MOTION_DDOT></tleParameters></data></segment></body></omm>
<omm id="CCSDS_OMM_VERS" version="2.0">
<header><CREATION_DATE/><ORIGINATOR/></header><body><segment><metadata><OBJECT_NAME>KUIPER-00172</OBJECT_NAME><OBJECT_ID>2025-217Z</OBJECT_ID><CENTER_NAME>EARTH</CENTER_NAME><REF_FRAME>TEME</REF_FRAME><TIME_SYSTEM>UTC</TIME_SYSTEM><MEAN_ELEMENT_THEORY>SGP4</MEAN_ELEMENT_THEORY></metadata><data><meanElements><EPOCH>2025-10-19T07:22:16.972896</EPOCH><MEAN_MOTION>15.37122528</MEAN_MOTION><ECCENTRICITY>.00026096</ECCENTRICITY><INCLINATION>51.8737</INCLINATION><RA_OF_ASC_NODE>327.4357</RA_OF_ASC_NODE><ARG_OF_PERICENTER>111.3605</ARG_OF_PERICENTER><MEAN_ANOMALY>248.7660</MEAN_ANOMALY></meanElements><tleParameters><EPHEMERIS_TYPE>0</EPHEMERIS_TYPE><CLASSIFICATION_TYPE>U</CLASSIFICATION_TYPE><NORAD_CAT_ID>65785</NORAD_CAT_ID><ELEMENT_SET_NO>999</ELEMENT_SET_NO><REV_AT_EPOCH>367</REV_AT_EPOCH><BSTAR>.1376169E-2</BSTAR><MEAN_MOTION_DOT>.50742E-3</MEAN_MOTION_DOT><MEAN_MOTION_DDOT>0</MEAN_MOTION_DDOT></tleParameters></data></segment></body></omm>

</ndm>
